NORAD_CAT_ID,OBJECT_NAME,OBJECT_TYPE,EPOCH,MEAN_MOTION,ECCENTRICITY,INCLINATION,RA_OF_ASC_NODE,ARG_OF_PERICENTER,MEAN_ANOMALY,BSTAR,MEAN_MOTION_DOT,MEAN_MOTION_DDOT,TLE_LINE0,TLE_LINE1,TLE_LINE2,SEMIMAJOR_AXIS,PERIOD,APOGEE,PERIGEE,DECAYED
50813.0,STARLINK-3349,PAYLOAD,2024-03-01 17:47:37,15.08841634,0.0001194,53.2157,231.8466,88.7301,271.3828,6.3652e-05,7.25e-06,0.0,0 STARLINK-3349,1 50813U 22001L   24061.74140349  .00000725  00000-0  63652-4 0  9997,2 50813  53.2157 231.8466 0001194  88.7301 271.3828 15.08841634120390,6917.875,95.437,540.566,538.914,0.0
50813.0,STARLINK-3349,PAYLOAD,2024-03-02 14:27:37,15.08842728,0.000123,53.2158,227.9806,86.2617,273.8516,0.00010202,1.336e-05,0.0,0 STARLINK-3349,1 50813U 22001L   24062.60252243  .00001336  00000-0  10202-3 0  9991,2 50813  53.2158 227.9806 0001230  86.2617 273.8516 15.08842728119270,6917.872,95.437,540.588,538.886,0.0
50813.0,STARLINK-3349,PAYLOAD,2024-03-02 17:38:23,15.08848449,0.0001173,53.2158,227.3863,81.867,278.2455,0.00011128,1.484e-05,0.0,0 STARLINK-3349,1 50813U 22001L   24062.73499927  .00001484  00000-0  11128-3 0  9999,2 50813  53.2158 227.3863 0001173  81.8670 278.2455 15.08848449119292,6917.855,95.437,540.531,538.908,0.0
50813.0,STARLINK-3349,PAYLOAD,2024-03-03 11:07:39,15.08833465,0.0001292,53.2159,224.1135,94.7854,265.3285,8.8113e-05,1.114e-05,0.0,0 STARLINK-3349,1 50813U 22001L   24063.46364902  .00001114  00000-0  88113-4 0  9993,2 50813  53.2159 224.1135 0001292  94.7854 265.3285 15.08833465120651,6917.9,95.438,540.659,538.872,0.0
50813.0,STARLINK-3349,PAYLOAD,2024-03-03 14:18:25,15.0883727,0.0001383,53.2169,223.5208,100.4186,259.6962,7.7241e-05,9.41e-06,0.0,0 STARLINK-3349,1 50813U 22001L   24063.59612846  .00000941  00000-0  77241-4 0  9997,2 50813  53.2169 223.5208 0001383 100.4186 259.6962 15.08837270119429,6917.889,95.438,540.71,538.797,0.0
50813.0,STARLINK-3349,PAYLOAD,2024-03-03 20:39:57,15.08847969,0.0001294,53.2168,222.3295,99.4199,260.694,0.00012849,1.758e-05,0.0,0 STARLINK-3349,1 50813U 22001L   24063.86108209  .00001758  00000-0  12849-3 0  9999,2 50813  53.2168 222.3295 0001294  99.4199 260.6940 15.08847969119461,6917.856,95.437,540.616,538.826,0.0
50813.0,STARLINK-3349,PAYLOAD,2024-03-04 14:09:12,15.08833387,0.0001195,53.2152,219.0576,82.9024,277.2104,-8.6035e-05,-1.657e-05,0.0,0 STARLINK-3349,1 50813U 22001L   24064.58973177 -.00001657  00000-0 -86035-4 0  9992,2 50813  53.2152 219.0576 0001195  82.9024 277.2104 15.08833387119570,6917.901,95.438,540.592,538.939,0.0
50813.0,STARLINK-3349,PAYLOAD,2024-03-04 17:19:58,15.08837314,0.0001277,53.2158,218.4616,77.6975,282.416,-2.1671e-05,-6.33e-06,0.0,0 STARLINK-3349,1 50813U 22001L   24064.72220942 -.00000633  00000-0 -21671-4 0  9991,2 50813  53.2158 218.4616 0001277  77.6975 282.4160 15.08837314120847,6917.889,95.438,540.637,538.87,0.0
50813.0,STARLINK-3349,PAYLOAD,2024-03-05 13:59:59,15.08850701,0.00011,53.2151,214.5997,84.9596,275.1522,0.00023837,3.509e-05,0.0,0 STARLINK-3349,1 50813U 22001L   24065.58332213  .00003509  00000-0  23837-3 0  9999,2 50813  53.2151 214.5997 0001100  84.9596 275.1522 15.08850701119725,6917.848,95.437,540.474,538.952,0.0
50813.0,STARLINK-3349,PAYLOAD,2024-03-05 18:46:08,15.08865988,0.000119,53.2158,213.71,97.1785,262.9342,0.0006169,9.551e-05,0.0,0 STARLINK-3349,1 50813U 22001L   24065.78203780  .00009551  00000-0  61690-3 0  9999,2 50813  53.2158 213.7100 0001190  97.1785 262.9342 15.08865988121005,6917.801,95.436,540.489,538.843,0.0
50813.0,STARLINK-3349,PAYLOAD,2024-03-06 13:50:46,15.08838784,9.76e-05,53.2145,210.1396,92.7801,267.3303,-7.9553e-05,-1.554e-05,0.0,0 STARLINK-3349,1 50813U 22001L   24066.57692467 -.00001554  00000-0 -79553-4 0  9996,2 50813  53.2145 210.1396 0000976  92.7801 267.3303 15.08838784119872,6917.884,95.438,540.424,539.074,0.0
50813.0,STARLINK-3349,PAYLOAD,2024-03-06 17:01:32,15.08833688,8.39e-05,53.2142,209.5455,104.8954,255.2131,-7.3953e-05,-1.464e-05,0.0,0 STARLINK-3349,1 50813U 22001L   24066.70940515 -.00001464  00000-0 -73953-4 0  9999,2 50813  53.2142 209.5455 0000839 104.8954 255.2131 15.08833688121145,6917.9,95.438,540.345,539.184,0.0
50813.0,STARLINK-3349,PAYLOAD,2024-03-07 15:16:57,15.08833439,0.0001142,53.2142,205.3822,71.6563,288.4553,0.00037372,5.664e-05,0.0,0 STARLINK-3349,1 50813U 22001L   24067.63677388  .00005664  00000-0  37372-3 0  9995,2 50813  53.2142 205.3822 0001142  71.6563 288.4553 15.08833439120039,6917.9,95.438,540.555,538.975,0.0
50813.0,STARLINK-3349,PAYLOAD,2024-03-09 02:15:26,15.08849464,8.74e-05,53.2171,198.8381,94.9181,265.1911,0.00043954,6.716e-05,0.0,0 STARLINK-3349,1 50813U 22001L   24069.09405190  .00006716  00000-0  43954-3 0  9999,2 50813  53.2171 198.8381 0000874  94.9181 265.1911 15.08849464121500,6917.851,95.437,540.321,539.112,0.0
50813.0,STARLINK-3349,PAYLOAD,2024-03-09 14:58:31,15.08841317,0.000138,53.2169,196.4601,92.4497,267.6653,0.00019182,2.766e-05,0.0,0 STARLINK-3349,1 50813U 22001L   24069.62397402  .00002766  00000-0  19182-3 0  9991,2 50813  53.2169 196.4601 0001380  92.4497 267.6653 15.08841317120331,6917.876,95.437,540.696,538.787,0.0
50813.0,STARLINK-3349,PAYLOAD,2024-03-10 11:38:32,15.08837387,0.0001411,53.2149,192.5899,105.9176,254.1971,0.00018856,2.714e-05,0.0,0 STARLINK-3349,1 50813U 22001L   24070.48509862  .00002714  00000-0  18856-3 0  9992,2 50813  53.2149 192.5899 0001411 105.9176 254.1971 15.08837387121713,6917.888,95.438,540.729,538.777,0.0
50813.0,STARLINK-3349,PAYLOAD,2024-03-10 14:49:18,15.0883479,0.0001155,53.2167,191.9983,90.9478,269.1646,0.0002231,3.264e-05,0.0,0 STARLINK-3349,1 50813U 22001L   24070.61758021  .00003264  00000-0  22310-3 0  9991,2 50813  53.2167 191.9983 0001155  90.9478 269.1646 15.08834790120486,6917.896,95.438,540.56,538.962,0.0
50813.0,STARLINK-3349,PAYLOAD,2024-03-11 14:40:05,15.08841318,0.0001148,53.218,187.5403,85.0011,275.1112,0.00020071,2.908e-05,0.0,0 STARLINK-3349,1 50813U 22001L   24071.61118047  .00002908  00000-0  20071-3 0  9996,2 50813  53.2180 187.5403 0001148  85.0011 275.1112 15.08841318120635,6917.876,95.437,540.536,538.947,0.0
50813.0,STARLINK-3349,PAYLOAD,2024-03-12 11:20:06,15.08837207,0.0001139,53.2169,183.6744,83.1223,276.9899,0.00010812,1.433e-05,0.0,0 STARLINK-3349,1 50813U 22001L   24072.47230235  .00001433  00000-0  10812-3 0  9999,2 50813  53.2169 183.6744 0001139  83.1223 276.9899 15.08837207122018,6917.889,95.438,540.542,538.966,0.0
50813.0,STARLINK-3349,PAYLOAD,2024-03-12 14:30:52,15.08849414,0.0001071,53.2166,183.0792,84.7392,275.3722,-0.00027059,-4.593e-05,0.0,0 STARLINK-3349,1 50813U 22001L   24072.60477482 -.00004593  00000-0 -27059-3 0  9994,2 50813  53.2166 183.0792 0001071  84.7392 275.3722 15.08849414122034,6917.852,95.437,540.458,538.976,0.0
50813.0,STARLINK-3349,PAYLOAD,2024-03-13 11:10:53,15.08841483,0.0001731,53.2179,179.2138,86.9146,273.2044,5.101e-05,5.24e-06,0.0,0 STARLINK-3349,1 50813U 22001L   24073.46590041  .00000524  00000-0  51010-4 0  9999,2 50813  53.2179 179.2138 0001731  86.9146 273.2044 15.08841483122169,6917.876,95.437,540.938,538.543,0.0
50813.0,STARLINK-3349,PAYLOAD,2024-03-13 17:32:26,15.08844606,0.000178,53.2173,178.0246,88.8391,271.2805,9.4787e-05,1.221e-05,0.0,0 STARLINK-3349,1 50813U 22001L   24073.73085879  .00001221  00000-0  94787-4 0  9990,2 50813  53.2173 178.0246 0001780  88.8391 271.2805 15.08844606120955,6917.866,95.437,540.963,538.5,0.0
50813.0,STARLINK-3349,PAYLOAD,2024-03-14 15:47:50,15.0884193,0.0001741,53.2166,173.8589,84.1934,275.9256,0.00012418,1.689e-05,0.0,0 STARLINK-3349,1 50813U 22001L   24074.65821977  .00001689  00000-0  12418-3 0  9997,2 50813  53.2166 173.8589 0001741  84.1934 275.9256 15.08841930122342,6917.874,95.437,540.944,538.535,0.0
50813.0,STARLINK-3349,PAYLOAD,2024-03-15 10:52:28,15.08829584,0.000131,53.2142,170.2893,109.4881,250.6252,0.00052261,8.037e-05,0.0,0 STARLINK-3349,1 50813U 22001L   24075.45310534  .00008037  00000-0  52261-3 0  9992,2 50813  53.2142 170.2893 0001310 109.4881 250.6252 15.08829584122469,6917.912,95.438,540.683,538.871,0.0
50813.0,STARLINK-3349,PAYLOAD,2024-03-15 18:49:23,15.08847099,0.0001445,53.2172,168.8057,105.846,254.2692,0.00017968,2.573e-05,0.0,0 STARLINK-3349,1 50813U 22001L   24075.78429458  .00002573  00000-0  17968-3 0  9998,2 50813  53.2172 168.8057 0001445 105.8460 254.2692 15.08847099122514,6917.859,95.437,540.723,538.724,0.0
50813.0,STARLINK-3349,PAYLOAD,2024-03-16 12:18:38,15.08834487,0.0001459,53.2162,165.5349,83.7718,276.3441,9.0026e-06,-1.45e-06,0.0,0 STARLINK-3349,1 50813U 22001L   24076.51294467 -.00000145  00000-0  90026-5 0  9992,2 50813  53.2162 165.5349 0001459  83.7718 276.3441 15.08834487122622,6917.897,95.438,540.772,538.753,0.0
50813.0,STARLINK-3349,PAYLOAD,2024-03-17 12:09:26,15.08828476,0.0001522,53.2176,161.0826,55.0933,305.0202,9.7649e-05,1.266e-05,0.0,0 STARLINK-3349,1 50813U 22001L   24077.50655150  .00001266  00000-0  97649-4 0  9993,2 50813  53.2176 161.0826 0001522  55.0933 305.0202 15.08828476121524,6917.916,95.438,540.834,538.728,0.0
50813.0,STARLINK-3349,PAYLOAD,2024-03-18 12:00:13,15.08831588,0.0001579,53.2169,156.6154,95.1406,264.9767,0.00012922,1.769e-05,0.0,0 STARLINK-3349,1 50813U 22001L   24078.50015886  .00001769  00000-0  12922-3 0  9998,2 50813  53.2169 156.6154 0001579  95.1406 264.9767 15.08831588122924,6917.906,95.438,540.863,538.679,0.0
50813.0,STARLINK-3349,PAYLOAD,2024-03-19 10:15:37,15.08863247,0.0001607,53.2167,152.4546,92.9793,267.1383,0.00082951,0.00012947,0.0,0 STARLINK-3349,1 50813U 22001L   24079.42751172  .00012947  00000-0  82951-3 0  9994,2 50813  53.2167 152.4546 0001607  92.9793 267.1383 15.08863247123069,6917.809,95.436,540.786,538.563,0.0
50813.0,STARLINK-3349,PAYLOAD,2024-03-20 10:06:23,15.08856197,0.0001784,53.2163,147.9908,120.8712,239.2456,0.00014315,1.992e-05,0.0,0 STARLINK-3349,1 50813U 22001L   24080.42110336  .00001992  00000-0  14315-3 0  9994,2 50813  53.2163 147.9908 0001784 120.8712 239.2456 15.08856197123218,6917.831,95.437,540.93,538.462,0.0
